start=new Date('2023-06-08T00:00:00.000Z').valueOf();
sats=[{"MEAN_ELEMENT_THEORY":"SGP4","OBJECT_ID":"2021-038AD","DECAY_DATE":null,"APOAPSIS":"547.963","MEAN_MOTION_DOT":"0.00000779","MEAN_MOTION":"15.06391498","RCS_SIZE":"LARGE","FILE":"3927436","PERIAPSIS":"546.517","MEAN_ANOMALY":"293.3982","INCLINATION":"53.0517","REV_AT_EPOCH":"11555","BSTAR":"0.00007121700000","EPOCH":"2023-06-07T19:19:28.237152","ECCENTRICITY":"0.00010440","GP_ID":"233429987","RA_OF_ASC_NODE":"187.2068","PERIOD":"95.593","ELEMENT_SET_NO":"999","CENTER_NAME":"EARTH","COUNTRY_CODE":"US","TLE_LINE1":"1 48380U 21038AD  23158.80518793  .00000779  00000-0  71217-4 0  9992","OBJECT_NAME":"STARLINK-2614","NORAD_CAT_ID":"48380","CLASSIFICATION_TYPE":"U","TLE_LINE2":"2 48380  53.0517 187.2068 0001044  66.7117 293.3982 15.06391498115554","SEMIMAJOR_AXIS":"6925.375","MEAN_MOTION_DDOT":"0.0000000000000","LAUNCH_DATE":"2021-05-04","ARG_OF_PERICENTER":"66.7117","REF_FRAME":"TEME","SITE":"AFETR","TIME_SYSTEM":"UTC","EPHEMERIS_TYPE":"0","OBJECT_TYPE":"PAYLOAD"},{"REF_FRAME":"TEME","SITE":"AFETR","TIME_SYSTEM":"UTC","OBJECT_TYPE":"PAYLOAD","EPHEMERIS_TYPE":"0","COUNTRY_CODE":"US","TLE_LINE1":"1 48381U 21038AE  23158.77664469 -.00001831  00000-0 -10406-3 0  9995","OBJECT_NAME":"STARLINK-2630","NORAD_CAT_ID":"48381","SEMIMAJOR_AXIS":"6925.368","TLE_LINE2":"2 48381  53.0527 187.3350 0001162  75.7110 284.4008 15.06393813115558","MEAN_MOTION_DDOT":"0.0000000000000","CLASSIFICATION_TYPE":"U","ARG_OF_PERICENTER":"75.7110","LAUNCH_DATE":"2021-05-04","RA_OF_ASC_NODE":"187.3350","PERIOD":"95.593","ELEMENT_SET_NO":"999","CENTER_NAME":"EARTH","EPOCH":"2023-06-07T18:38:22.101216","ECCENTRICITY":"0.00011620","GP_ID":"233430736","INCLINATION":"53.0527","PERIAPSIS":"546.428","MEAN_ANOMALY":"284.4008","REV_AT_EPOCH":"11555","BSTAR":"-0.00010406000000","APOAPSIS":"548.037","MEAN_MOTION_DOT":"-0.00001831","MEAN_MOTION":"15.06393813","RCS_SIZE":"LARGE","FILE":"3927436","MEAN_ELEMENT_THEORY":"SGP4","OBJECT_ID":"2021-038AE","DECAY_DATE":null},{"CENTER_NAME":"EARTH","ELEMENT_SET_NO":"999","PERIOD":"95.592","RA_OF_ASC_NODE":"187.3551","TIME_SYSTEM":"UTC","SITE":"AFETR","EPHEMERIS_TYPE":"0","OBJECT_TYPE":"PAYLOAD","REF_FRAME":"TEME","OBJECT_NAME":"STARLINK-2585","NORAD_CAT_ID":"48382","ARG_OF_PERICENTER":"92.3691","LAUNCH_DATE":"2021-05-04","CLASSIFICATION_TYPE":"U","TLE_LINE2":"2 48382  53.0522 187.3551 0001031  92.3691 267.7416 15.06395461115559","SEMIMAJOR_AXIS":"6925.362","MEAN_MOTION_DDOT":"0.0000000000000","COUNTRY_CODE":"US","TLE_LINE1":"1 48382U 21038AF  23158.77295656  .00001302  00000-0  10632-3 0  9996","MEAN_MOTION":"15.06395461","FILE":"3927436","RCS_SIZE":"LARGE","MEAN_MOTION_DOT":"0.00001302","APOAPSIS":"547.941","DECAY_DATE":null,"MEAN_ELEMENT_THEORY":"SGP4","OBJECT_ID":"2021-038AF","ECCENTRICITY":"0.00010310","GP_ID":"233431488","EPOCH":"2023-06-07T18:33:03.446784","BSTAR":"0.00010632000000","REV_AT_EPOCH":"11555","MEAN_ANOMALY":"267.7416","PERIAPSIS":"546.513","INCLINATION":"53.0522"},{"CENTER_NAME":"EARTH","PERIOD":"95.593","ELEMENT_SET_NO":"999","RA_OF_ASC_NODE":"187.3686","ARG_OF_PERICENTER":"58.4959","LAUNCH_DATE":"2021-05-04","TLE_LINE2":"2 48383  53.0533 187.3686 0000954  58.4959 301.6123 15.06394311116775","MEAN_MOTION_DDOT":"0.0000000000000","SEMIMAJOR_AXIS":"6925.366","CLASSIFICATION_TYPE":"U","NORAD_CAT_ID":"48383","OBJECT_NAME":"STARLINK-2599","TLE_LINE1":"1 48383U 21038AG  23158.76927427 -.00000789  00000-0 -34068-4 0  9994","COUNTRY_CODE":"US","OBJECT_TYPE":"PAYLOAD","EPHEMERIS_TYPE":"0","SITE":"AFETR","TIME_SYSTEM":"UTC","REF_FRAME":"TEME","DECAY_DATE":null,"OBJECT_ID":"2021-038AG","MEAN_ELEMENT_THEORY":"SGP4","RCS_SIZE":"LARGE","FILE":"3927436","MEAN_MOTION":"15.06394311","MEAN_MOTION_DOT":"-0.00000789","APOAPSIS":"547.892","BSTAR":"-0.00003406800000","REV_AT_EPOCH":"11677","INCLINATION":"53.0533","PERIAPSIS":"546.570","MEAN_ANOMALY":"301.6123","GP_ID":"233431239","ECCENTRICITY":"0.00009540","EPOCH":"2023-06-07T18:27:45.296928"},{"CENTER_NAME":"EARTH","RA_OF_ASC_NODE":"186.7902","ELEMENT_SET_NO":"999","PERIOD":"95.592","OBJECT_NAME":"STARLINK-2601","NORAD_CAT_ID":"48384","MEAN_MOTION_DDOT":"0.0000000000000","TLE_LINE2":"2 48384  53.0539 186.7902 0001108  84.6468 275.4648 15.06400542116790","SEMIMAJOR_AXIS":"6925.347","CLASSIFICATION_TYPE":"U","ARG_OF_PERICENTER":"84.6468","LAUNCH_DATE":"2021-05-04","COUNTRY_CODE":"US","TLE_LINE1":"1 48384U 21038AH  23158.89828072  .00000241  00000-0  35056-4 0  9994","TIME_SYSTEM":"UTC","SITE":"AFETR","OBJECT_TYPE":"PAYLOAD","EPHEMERIS_TYPE":"0","REF_FRAME":"TEME","DECAY_DATE":null,"MEAN_ELEMENT_THEORY":"SGP4","OBJECT_ID":"2021-038AH","MEAN_MOTION":"15.06400542","FILE":"3927436","RCS_SIZE":"LARGE","APOAPSIS":"547.979","MEAN_MOTION_DOT":"0.00000241","BSTAR":"0.00003505600000","PERIAPSIS":"546.445","MEAN_ANOMALY":"275.4648","INCLINATION":"53.0539","REV_AT_EPOCH":"11679","ECCENTRICITY":"0.00011080","GP_ID":"233430487","EPOCH":"2023-06-07T21:33:31.454208"},{"EPOCH":"2023-06-07T10:19:26.064192","GP_ID":"233406430","ECCENTRICITY":"0.00011460","REV_AT_EPOCH":"11608","INCLINATION":"53.0516","PERIAPSIS":"546.434","MEAN_ANOMALY":"277.0318","BSTAR":"-0.00007259800000","MEAN_MOTION_DOT":"-0.00001362","APOAPSIS":"548.021","FILE":"3927309","RCS_SIZE":"LARGE","MEAN_MOTION":"15.06395345","OBJECT_ID":"2021-038AJ","MEAN_ELEMENT_THEORY":"SGP4","DECAY_DATE":null,"REF_FRAME":"TEME","OBJECT_TYPE":"PAYLOAD","EPHEMERIS_TYPE":"0","SITE":"AFETR","TIME_SYSTEM":"UTC","TLE_LINE1":"1 48385U 21038AJ  23158.43016278 -.00001362  00000-0 -72598-4 0  9991","COUNTRY_CODE":"US","ARG_OF_PERICENTER":"83.0801","LAUNCH_DATE":"2021-05-04","TLE_LINE2":"2 48385  53.0516 188.8883 0001146  83.0801 277.0318 15.06395345116081","CLASSIFICATION_TYPE":"U","SEMIMAJOR_AXIS":"6925.363","MEAN_MOTION_DDOT":"0.0000000000000","OBJECT_NAME":"STARLINK-2598","NORAD_CAT_ID":"48385","PERIOD":"95.592","ELEMENT_SET_NO":"999","RA_OF_ASC_NODE":"188.8883","CENTER_NAME":"EARTH"},{"BSTAR":"-0.00009209900000","REV_AT_EPOCH":"11557","INCLINATION":"53.0523","PERIAPSIS":"546.556","MEAN_ANOMALY":"274.3173","GP_ID":"233398276","ECCENTRICITY":"0.00009790","EPOCH":"2023-06-07T11:37:03.867456","DECAY_DATE":null,"OBJECT_ID":"2021-038AK","MEAN_ELEMENT_THEORY":"SGP4","RCS_SIZE":"LARGE","FILE":"3927174","MEAN_MOTION":"15.06393247","MEAN_MOTION_DOT":"-0.00001653","APOAPSIS":"547.912","ARG_OF_PERICENTER":"85.7927","LAUNCH_DATE":"2021-05-04","SEMIMAJOR_AXIS":"6925.369","TLE_LINE2":"2 48386  53.0523 183.6551 0000979  85.7927 274.3173 15.06393247115577","MEAN_MOTION_DDOT":"0.0000000000000","CLASSIFICATION_TYPE":"U","OBJECT_NAME":"STARLINK-2606","NORAD_CAT_ID":"48386","TLE_LINE1":"1 48386U 21038AK  23158.48407254 -.00001653  00000-0 -92099-4 0  9996","COUNTRY_CODE":"US","OBJECT_TYPE":"PAYLOAD","EPHEMERIS_TYPE":"0","SITE":"AFETR","TIME_SYSTEM":"UTC","REF_FRAME":"TEME","CENTER_NAME":"EARTH","PERIOD":"95.593","ELEMENT_SET_NO":"999","RA_OF_ASC_NODE":"183.6551"},{"TLE_LINE1":"1 48387U 21038AL  23158.77895211  .00000375  00000-0  44096-4 0  9995","COUNTRY_CODE":"US","TLE_LINE2":"2 48387  53.0534 182.2945 0001057  90.5257 269.5853 15.06393607115627","SEMIMAJOR_AXIS":"6925.368","CLASSIFICATION_TYPE":"U","MEAN_MOTION_DDOT":"0.0000000000000","ARG_OF_PERICENTER":"90.5257","LAUNCH_DATE":"2021-05-04","OBJECT_NAME":"STARLINK-2600","NORAD_CAT_ID":"48387","REF_FRAME":"TEME","OBJECT_TYPE":"PAYLOAD","EPHEMERIS_TYPE":"0","SITE":"AFETR","TIME_SYSTEM":"UTC","RA_OF_ASC_NODE":"182.2945","PERIOD":"95.593","ELEMENT_SET_NO":"999","CENTER_NAME":"EARTH","INCLINATION":"53.0534","PERIAPSIS":"546.501","MEAN_ANOMALY":"269.5853","REV_AT_EPOCH":"11562","BSTAR":"0.00004409600000","EPOCH":"2023-06-07T18:41:41.462304","GP_ID":"233431739","ECCENTRICITY":"0.00010570","OBJECT_ID":"2021-038AL","MEAN_ELEMENT_THEORY":"SGP4","DECAY_DATE":null,"APOAPSIS":"547.965","MEAN_MOTION_DOT":"0.00000375","FILE":"3927436","RCS_SIZE":"LARGE","MEAN_MOTION":"15.06393607"},{"BSTAR":"0.00004874800000","PERIAPSIS":"546.612","MEAN_ANOMALY":"271.7677","INCLINATION":"53.0535","REV_AT_EPOCH":"11562","GP_ID":"233429988","ECCENTRICITY":"0.00008910","EPOCH":"2023-06-07T18:36:23.207904","DECAY_DATE":null,"OBJECT_ID":"2021-038AM","MEAN_ELEMENT_THEORY":"SGP4","RCS_SIZE":"LARGE","FILE":"3927436","MEAN_MOTION":"15.06394894","APOAPSIS":"547.846","MEAN_MOTION_DOT":"0.00000445","TLE_LINE2":"2 48388  53.0535 182.3437 0000891  88.3414 271.7677 15.06394894115629","CLASSIFICATION_TYPE":"U","SEMIMAJOR_AXIS":"6925.364","MEAN_MOTION_DDOT":"0.0000000000000","ARG_OF_PERICENTER":"88.3414","LAUNCH_DATE":"2021-05-04","NORAD_CAT_ID":"48388","OBJECT_NAME":"STARLINK-2594","TLE_LINE1":"1 48388U 21038AM  23158.77526861  .00000445  00000-0  48748-4 0  9994","COUNTRY_CODE":"US","EPHEMERIS_TYPE":"0","OBJECT_TYPE":"PAYLOAD","TIME_SYSTEM":"UTC","SITE":"AFETR","REF_FRAME":"TEME","CENTER_NAME":"EARTH","RA_OF_ASC_NODE":"182.3437","ELEMENT_SET_NO":"999","PERIOD":"95.592"},{"EPOCH":"2023-06-07T18:17:06.525312","ECCENTRICITY":"0.00010620","GP_ID":"233430737","REV_AT_EPOCH":"11568","PERIAPSIS":"546.495","MEAN_ANOMALY":"275.9082","INCLINATION":"53.0535","BSTAR":"0.00001649100000","MEAN_MOTION_DOT":"-0.00000036","APOAPSIS":"547.966","MEAN_MOTION":"15.06394335","RCS_SIZE":"LARGE","FILE":"3927436","MEAN_ELEMENT_THEORY":"SGP4","OBJECT_ID":"2021-038AN","DECAY_DATE":null,"REF_FRAME":"TEME","SITE":"AFETR","TIME_SYSTEM":"UTC","EPHEMERIS_TYPE":"0","OBJECT_TYPE":"PAYLOAD","COUNTRY_CODE":"US","TLE_LINE1":"1 48389U 21038AN  23158.76188108 -.00000036  00000-0  16491-4 0  9999","OBJECT_NAME":"STARLINK-1904","NORAD_CAT_ID":"48389","ARG_OF_PERICENTER":"84.2028","LAUNCH_DATE":"2021-05-04","MEAN_MOTION_DDOT":"0.0000000000000","TLE_LINE2":"2 48389  53.0535 177.3926 0001062  84.2028 275.9082 15.06394335115686","SEMIMAJOR_AXIS":"6925.366","CLASSIFICATION_TYPE":"U","PERIOD":"95.592","ELEMENT_SET_NO":"999","RA_OF_ASC_NODE":"177.3926","CENTER_NAME":"EARTH"}];
